{
  "norad_id": 63899,
  "name": "STARLINK-34134",
  "history": [
    {
      "epoch": "2026-03-28T15:11:36.341664Z",
      "apogee_km": 483.59592987864926,
      "perigee_km": 482.40895275530147,
      "latitude_deg": 1.9875157967853813e-05,
      "longitude_deg": 15.39888984663505,
      "height_km": 482.9279045264098,
      "semi_major_axis_km": 6861.139441316975,
      "eccentricity": 8.65e-05,
      "inclination_deg": 43.0013,
      "raan_deg": 69.351,
      "arg_perigee_deg": 255.447,
      "mean_anomaly_deg": 104.6286,
      "mean_motion_rev_day": 15.27595581
    },
    {
      "epoch": "2026-03-29T05:19:00.763104Z",
      "apogee_km": 483.41122172963514,
      "perigee_km": 482.49458011887236,
      "latitude_deg": -1.3478000500080345e-05,
      "longitude_deg": 159.64426875189622,
      "height_km": 482.99275960556434,
      "semi_major_axis_km": 6861.089900924254,
      "eccentricity": 6.68e-05,
      "inclination_deg": 43.0029,
      "raan_deg": 66.0282,
      "arg_perigee_deg": 125.2845,
      "mean_anomaly_deg": 234.8069,
      "mean_motion_rev_day": 15.27612126
    }
  ]
}